ORBCOMM FM37            
1 33064U 08031E   24123.00404852  .00001932  00000+0  30484-3 0  9999
2 33064  48.4386 133.3738 0005587  48.9962 332.1528 14.76351758853548
ORBCOMM FM40            
1 33065U 08031F   24123.22395042  .00002443  00000+0  36651-3 0  9994
2 33065  48.4412 121.7867 0006818  60.4928  30.8952 14.77656991853734
VESSELSAT 1             
1 37840U 11058C   24123.51098159  .00000409  00000+0  78647-4 0  9995
2 37840  19.9622  58.4919 0013618 350.4894   9.5252 14.11146621648458
ORBCOMM FM109           
1 40086U 14040A   24123.13850278  .00000863  00000+0  22921-3 0  9998
2 40086  47.0022 155.3286 0002627 247.1760 112.8848 14.56559832521221
ORBCOMM FM107           
1 40087U 14040B   24122.82982786  .00000941  00000+0  24665-3 0  9998
2 40087  47.0037 157.7479 0001710 229.1753 130.8984 14.56566973521137
ORBCOMM FM106           
1 40088U 14040C   24122.95136744  .00001455  00000+0  28941-3 0  9990
2 40088  47.0612  10.9408 0018133 317.0043  42.9429 14.66974542523040
ORBCOMM FM111           
1 40089U 14040D   24122.72900318  .00003428  00000+0  45304-3 0  9996
2 40089  47.0030 274.0529 0032343  26.7202 333.5352 14.81686230529111
ORBCOMM FM104           
1 40090U 14040E   24123.47859358  .00000726  00000+0  20504-3 0  9991
2 40090  47.0041 183.5143 0016249 131.4958 228.7323 14.55094720520875
